CCSDS_OMM_VERS = 2.0
CREATION_DATE  = 
ORIGINATOR     = 

OBJECT_NAME    = IDEFIX & ARIANE 42P R/B
OBJECT_ID      = 2002-021B
CENTER_NAME    = EARTH
REF_FRAME      = TEME
TIME_SYSTEM    = UTC
MEAN_ELEMENT_THEORY = SGP/SGP4

EPOCH          = 2026-02-07T20:23:23.596224
MEAN_MOTION    = 14.31004500
ECCENTRICITY   = .0010693
INCLINATION    = 98.5841
RA_OF_ASC_NODE = 337.8184
ARG_OF_PERICENTER = 276.8821
MEAN_ANOMALY   = 83.1145

EPHEMERIS_TYPE = 0
CLASSIFICATION_TYPE = U
NORAD_CAT_ID   = 27422
ELEMENT_SET_NO = 999
REV_AT_EPOCH   = 23975
BSTAR          = .17457E-3
MEAN_MOTION_DOT = .416E-5
MEAN_MOTION_DDOT = 0

CCSDS_OMM_VERS = 2.0
CREATION_DATE  = 
ORIGINATOR     = 

OBJECT_NAME    = AQUA
OBJECT_ID      = 2002-022A
CENTER_NAME    = EARTH
REF_FRAME      = TEME
TIME_SYSTEM    = UTC
MEAN_ELEMENT_THEORY = SGP/SGP4

EPOCH          = 2026-02-07T21:53:21.888960
MEAN_MOTION    = 14.61901895
ECCENTRICITY   = .0001533
INCLINATION    = 98.4122
RA_OF_ASC_NODE = 5.7476
ARG_OF_PERICENTER = 53.5027
MEAN_ANOMALY   = 8.2087

EPHEMERIS_TYPE = 0
CLASSIFICATION_TYPE = U
NORAD_CAT_ID   = 27424
ELEMENT_SET_NO = 999
REV_AT_EPOCH   = 26438
BSTAR          = .28095E-3
MEAN_MOTION_DOT = .1356E-4
MEAN_MOTION_DDOT = 0

CCSDS_OMM_VERS = 2.0
CREATION_DATE  = 
ORIGINATOR     = 

OBJECT_NAME    = CZ-4B R/B
OBJECT_ID      = 2002-024C
CENTER_NAME    = EARTH
REF_FRAME      = TEME
TIME_SYSTEM    = UTC
MEAN_ELEMENT_THEORY = SGP/SGP4

EPOCH          = 2026-02-07T17:41:56.018688
MEAN_MOTION    = 14.14542188
ECCENTRICITY   = .0051149
INCLINATION    = 98.8905
RA_OF_ASC_NODE = 92.2854
ARG_OF_PERICENTER = 107.8661
MEAN_ANOMALY   = 1.6113

EPHEMERIS_TYPE = 0
CLASSIFICATION_TYPE = U
NORAD_CAT_ID   = 27432
ELEMENT_SET_NO = 999
REV_AT_EPOCH   = 22500
BSTAR          = .45614E-4
MEAN_MOTION_DOT = .45E-6
MEAN_MOTION_DDOT = 0

CCSDS_OMM_VERS = 2.0
CREATION_DATE  = 
ORIGINATOR     = 

OBJECT_NAME    = MIDORI II (ADEOS-II)
OBJECT_ID      = 2002-056A
CENTER_NAME    = EARTH
REF_FRAME      = TEME
TIME_SYSTEM    = UTC
MEAN_ELEMENT_THEORY = SGP/SGP4

EPOCH          = 2026-02-07T20:11:38.899680
MEAN_MOTION    = 14.29262336
ECCENTRICITY   = .0002123
INCLINATION    = 98.7718
RA_OF_ASC_NODE = 357.1235
ARG_OF_PERICENTER = 84.9055
MEAN_ANOMALY   = 275.2369

EPHEMERIS_TYPE = 0
CLASSIFICATION_TYPE = U
NORAD_CAT_ID   = 27597
ELEMENT_SET_NO = 999
REV_AT_EPOCH   = 20603
BSTAR          = .19912E-3
MEAN_MOTION_DOT = .461E-5
MEAN_MOTION_DDOT = 0

CCSDS_OMM_VERS = 2.0
CREATION_DATE  = 
ORIGINATOR     = 

OBJECT_NAME    = H-2A R/B
OBJECT_ID      = 2002-056E
CENTER_NAME    = EARTH
REF_FRAME      = TEME
TIME_SYSTEM    = UTC
MEAN_ELEMENT_THEORY = SGP/SGP4

EPOCH          = 2026-02-07T20:06:27.468288
MEAN_MOTION    = 14.33739382
ECCENTRICITY   = .0069038
INCLINATION    = 98.3149
RA_OF_ASC_NODE = 0.3499
ARG_OF_PERICENTER = 250.3322
MEAN_ANOMALY   = 168.3065

EPHEMERIS_TYPE = 0
CLASSIFICATION_TYPE = U
NORAD_CAT_ID   = 27601
ELEMENT_SET_NO = 999
REV_AT_EPOCH   = 20983
BSTAR          = .16847E-3
MEAN_MOTION_DOT = .438E-5
MEAN_MOTION_DDOT = 0

CCSDS_OMM_VERS = 2.0
CREATION_DATE  = 
ORIGINATOR     = 

OBJECT_NAME    = CZ-4B R/B
OBJECT_ID      = 2003-049C
CENTER_NAME    = EARTH
REF_FRAME      = TEME
TIME_SYSTEM    = UTC
MEAN_ELEMENT_THEORY = SGP/SGP4

EPOCH          = 2026-02-07T14:33:48.970656
MEAN_MOTION    = 14.54986845
ECCENTRICITY   = .0047523
INCLINATION    = 98.6848
RA_OF_ASC_NODE = 32.3396
ARG_OF_PERICENTER = 324.7277
MEAN_ANOMALY   = 35.0777

EPHEMERIS_TYPE = 0
CLASSIFICATION_TYPE = U
NORAD_CAT_ID   = 28059
ELEMENT_SET_NO = 999
REV_AT_EPOCH   = 18222
BSTAR          = .16764E-3
MEAN_MOTION_DOT = .681E-5
MEAN_MOTION_DDOT = 0

CCSDS_OMM_VERS = 2.0
CREATION_DATE  = 
ORIGINATOR     = 

OBJECT_NAME    = CZ-2C R/B
OBJECT_ID      = 2004-012C
CENTER_NAME    = EARTH
REF_FRAME      = TEME
TIME_SYSTEM    = UTC
MEAN_ELEMENT_THEORY = SGP/SGP4

EPOCH          = 2026-02-07T16:55:46.007040
MEAN_MOTION    = 15.61108805
ECCENTRICITY   = .0016086
INCLINATION    = 97.7304
RA_OF_ASC_NODE = 101.2302
ARG_OF_PERICENTER = 63.5659
MEAN_ANOMALY   = 296.7246

EPHEMERIS_TYPE = 0
CLASSIFICATION_TYPE = U
NORAD_CAT_ID   = 28222
ELEMENT_SET_NO = 999
REV_AT_EPOCH   = 19959
BSTAR          = .78389E-3
MEAN_MOTION_DOT = .66773E-3
MEAN_MOTION_DDOT = 0

CCSDS_OMM_VERS = 2.0
CREATION_DATE  = 
ORIGINATOR     = 

OBJECT_NAME    = SL-16 R/B
OBJECT_ID      = 2004-021B
CENTER_NAME    = EARTH
REF_FRAME      = TEME
TIME_SYSTEM    = UTC
MEAN_ELEMENT_THEORY = SGP/SGP4

EPOCH          = 2026-02-07T19:52:56.064288
MEAN_MOTION    = 14.14589766
ECCENTRICITY   = .0002906
INCLINATION    = 71.0000
RA_OF_ASC_NODE = 295.1619
ARG_OF_PERICENTER = 84.6759
MEAN_ANOMALY   = 275.4695

EPHEMERIS_TYPE = 0
CLASSIFICATION_TYPE = U
NORAD_CAT_ID   = 28353
ELEMENT_SET_NO = 999
REV_AT_EPOCH   = 11861
BSTAR          = .72259E-4
MEAN_MOTION_DOT = .91E-6
MEAN_MOTION_DDOT = 0

CCSDS_OMM_VERS = 2.0
CREATION_DATE  = 
ORIGINATOR     = 

OBJECT_NAME    = CZ-4B R/B
OBJECT_ID      = 2004-035C
CENTER_NAME    = EARTH
REF_FRAME      = TEME
TIME_SYSTEM    = UTC
MEAN_ELEMENT_THEORY = SGP/SGP4

EPOCH          = 2026-02-07T16:04:07.893984
MEAN_MOTION    = 15.28508273
ECCENTRICITY   = .0034186
INCLINATION    = 97.3549
RA_OF_ASC_NODE = 73.2781
ARG_OF_PERICENTER = 76.2372
MEAN_ANOMALY   = 284.2669

EPHEMERIS_TYPE = 0
CLASSIFICATION_TYPE = U
NORAD_CAT_ID   = 28415
ELEMENT_SET_NO = 999
REV_AT_EPOCH   = 17532
BSTAR          = .38494E-3
MEAN_MOTION_DOT = .10795E-3
MEAN_MOTION_DDOT = 0

CCSDS_OMM_VERS = 2.0
CREATION_DATE  = 
ORIGINATOR     = 

OBJECT_NAME    = CZ-2C R/B
OBJECT_ID      = 2004-046B
CENTER_NAME    = EARTH
REF_FRAME      = TEME
TIME_SYSTEM    = UTC
MEAN_ELEMENT_THEORY = SGP/SGP4

EPOCH          = 2026-02-07T18:07:19.457184
MEAN_MOTION    = 14.26981540
ECCENTRICITY   = .0138276
INCLINATION    = 98.1995
RA_OF_ASC_NODE = 315.5981
ARG_OF_PERICENTER = 243.2277
MEAN_ANOMALY   = 115.4703

EPHEMERIS_TYPE = 0
CLASSIFICATION_TYPE = U
NORAD_CAT_ID   = 28480
ELEMENT_SET_NO = 999
REV_AT_EPOCH   = 10423
BSTAR          = .9244E-4
MEAN_MOTION_DOT = .206E-5
MEAN_MOTION_DDOT = 0

CCSDS_OMM_VERS = 2.0
CREATION_DATE  = 
ORIGINATOR     = 

OBJECT_NAME    = ARIANE 5 R/B
OBJECT_ID      = 2004-049H
CENTER_NAME    = EARTH
REF_FRAME      = TEME
TIME_SYSTEM    = UTC
MEAN_ELEMENT_THEORY = SGP/SGP4

EPOCH          = 2026-02-07T10:49:26.387040
MEAN_MOTION    = 14.85203859
ECCENTRICITY   = .00855014
INCLINATION    = 98.2578
RA_OF_ASC_NODE = 205.7872
ARG_OF_PERICENTER = 89.1372
MEAN_ANOMALY   = 271.9637

EPHEMERIS_TYPE = 0
CLASSIFICATION_TYPE = U
NORAD_CAT_ID   = 28499
ELEMENT_SET_NO = 999
REV_AT_EPOCH   = 14130
BSTAR          = .1631916E-3
MEAN_MOTION_DOT = .143E-4
MEAN_MOTION_DDOT = 0

CCSDS_OMM_VERS = 2.0
CREATION_DATE  = 
ORIGINATOR     = 

OBJECT_NAME    = CZ-2D R/B
OBJECT_ID      = 2005-024B
CENTER_NAME    = EARTH
REF_FRAME      = TEME
TIME_SYSTEM    = UTC
MEAN_ELEMENT_THEORY = SGP/SGP4

EPOCH          = 2026-02-07T14:25:54.845472
MEAN_MOTION    = 15.57518842
ECCENTRICITY   = .0007346
INCLINATION    = 97.3623
RA_OF_ASC_NODE = 52.7065
ARG_OF_PERICENTER = 119.3364
MEAN_ANOMALY   = 240.8626

EPHEMERIS_TYPE = 0
CLASSIFICATION_TYPE = U
NORAD_CAT_ID   = 28738
ELEMENT_SET_NO = 999
REV_AT_EPOCH   = 13509
BSTAR          = .5937E-3
MEAN_MOTION_DOT = .43791E-3
MEAN_MOTION_DDOT = 0

